<?xml version="1.0" encoding="UTF-8" standalone="no" ?>
<gpx version="1.1" creator="Visorando" xmlns:xsi="http://www.w3.org/2001/XMLSchema-instance" xmlns="http://www.topografix.com/GPX/1/1" xsi:schemaLocation="http://www.topografix.com/GPX/1/1 http://www.topografix.com/GPX/1/1/gpx.xsd">
<metadata>
  <name>Rando chamechaude Jess</name>
  <link href="https://www.visorando.com/randonnee-74247623/">
    <text>https://www.visorando.com/randonnee-74247623/</text>
  </link>
</metadata><wpt lat="45.288353" lon="5.768513">
  <ele>1311</ele>
  <time>2025-05-02T10:36:42.000Z</time>
  <name>Point de passage 1</name>
  <type>GENERIC</type>
</wpt><wpt lat="45.291973" lon="5.767254">
  <ele>1313</ele>
  <time>2025-05-02T14:50:32.000Z</time>
  <name>Point de passage 2</name>
  <type>GENERIC</type>
</wpt><trk>
  <name>Rando chamechaude Jess</name>
  <trkseg>
    <trkpt lat="45.288353" lon="5.768513">
      <ele>1311</ele>
      <time>2025-05-02T10:36:42.000Z</time>
    </trkpt>
    <trkpt lat="45.288571" lon="5.768602">
      <ele>1319</ele>
      <time>2025-05-02T10:36:50.000Z</time>
    </trkpt>
    <trkpt lat="45.288673" lon="5.768893">
      <ele>1324</ele>
      <time>2025-05-02T10:37:06.000Z</time>
    </trkpt>
    <trkpt lat="45.288569" lon="5.769189">
      <ele>1326</ele>
      <time>2025-05-02T10:37:26.000Z</time>
    </trkpt>
    <trkpt lat="45.288446" lon="5.769478">
      <ele>1330</ele>
      <time>2025-05-02T10:37:48.000Z</time>
    </trkpt>
    <trkpt lat="45.28831" lon="5.769747">
      <ele>1333</ele>
      <time>2025-05-02T10:38:10.000Z</time>
    </trkpt>
    <trkpt lat="45.288201" lon="5.770041">
      <ele>1339</ele>
      <time>2025-05-02T10:38:33.000Z</time>
    </trkpt>
    <trkpt lat="45.288091" lon="5.770335">
      <ele>1342</ele>
      <time>2025-05-02T10:39:00.000Z</time>
    </trkpt>
    <trkpt lat="45.288105" lon="5.770656">
      <ele>1346</ele>
      <time>2025-05-02T10:39:24.000Z</time>
    </trkpt>
    <trkpt lat="45.288082" lon="5.770997">
      <ele>1356</ele>
      <time>2025-05-02T10:39:52.000Z</time>
    </trkpt>
    <trkpt lat="45.288073" lon="5.771319">
      <ele>1357</ele>
      <time>2025-05-02T10:40:15.000Z</time>
    </trkpt>
    <trkpt lat="45.288075" lon="5.771648">
      <ele>1360</ele>
      <time>2025-05-02T10:40:37.000Z</time>
    </trkpt>
    <trkpt lat="45.288127" lon="5.771958">
      <ele>1366</ele>
      <time>2025-05-02T10:40:59.000Z</time>
    </trkpt>
    <trkpt lat="45.288185" lon="5.772274">
      <ele>1368</ele>
      <time>2025-05-02T10:41:23.000Z</time>
    </trkpt>
    <trkpt lat="45.28825" lon="5.772591">
      <ele>1376</ele>
      <time>2025-05-02T10:42:21.000Z</time>
    </trkpt>
    <trkpt lat="45.288447" lon="5.77278">
      <ele>1381</ele>
      <time>2025-05-02T10:44:53.000Z</time>
    </trkpt>
    <trkpt lat="45.288662" lon="5.772911">
      <ele>1384</ele>
      <time>2025-05-02T10:45:14.000Z</time>
    </trkpt>
    <trkpt lat="45.288852" lon="5.773098">
      <ele>1387</ele>
      <time>2025-05-02T10:45:35.000Z</time>
    </trkpt>
    <trkpt lat="45.289056" lon="5.773268">
      <ele>1393</ele>
      <time>2025-05-02T10:45:54.000Z</time>
    </trkpt>
    <trkpt lat="45.289252" lon="5.77343">
      <ele>1397</ele>
      <time>2025-05-02T10:46:14.000Z</time>
    </trkpt>
    <trkpt lat="45.289451" lon="5.773585">
      <ele>1401</ele>
      <time>2025-05-02T10:46:36.000Z</time>
    </trkpt>
    <trkpt lat="45.289662" lon="5.773729">
      <ele>1406</ele>
      <time>2025-05-02T10:46:57.000Z</time>
    </trkpt>
    <trkpt lat="45.289859" lon="5.773907">
      <ele>1411</ele>
      <time>2025-05-02T10:47:18.000Z</time>
    </trkpt>
    <trkpt lat="45.290041" lon="5.774115">
      <ele>1416</ele>
      <time>2025-05-02T10:47:40.000Z</time>
    </trkpt>
    <trkpt lat="45.290194" lon="5.774352">
      <ele>1420</ele>
      <time>2025-05-02T10:48:02.000Z</time>
    </trkpt>
    <trkpt lat="45.290311" lon="5.774627">
      <ele>1424</ele>
      <time>2025-05-02T10:48:24.000Z</time>
    </trkpt>
    <trkpt lat="45.290409" lon="5.774918">
      <ele>1431</ele>
      <time>2025-05-02T10:48:49.000Z</time>
    </trkpt>
    <trkpt lat="45.290502" lon="5.775212">
      <ele>1435</ele>
      <time>2025-05-02T10:49:12.000Z</time>
    </trkpt>
    <trkpt lat="45.290603" lon="5.775503">
      <ele>1438</ele>
      <time>2025-05-02T10:49:33.000Z</time>
    </trkpt>
    <trkpt lat="45.290707" lon="5.775786">
      <ele>1445</ele>
      <time>2025-05-02T10:49:56.000Z</time>
    </trkpt>
    <trkpt lat="45.29083" lon="5.776061">
      <ele>1448</ele>
      <time>2025-05-02T10:50:16.000Z</time>
    </trkpt>
    <trkpt lat="45.290974" lon="5.77631">
      <ele>1452</ele>
      <time>2025-05-02T10:50:37.000Z</time>
    </trkpt>
    <trkpt lat="45.291141" lon="5.776538">
      <ele>1457</ele>
      <time>2025-05-02T10:50:56.000Z</time>
    </trkpt>
    <trkpt lat="45.290944" lon="5.776706">
      <ele>1465</ele>
      <time>2025-05-02T10:51:43.000Z</time>
    </trkpt>
    <trkpt lat="45.290709" lon="5.776712">
      <ele>1470</ele>
      <time>2025-05-02T10:52:05.000Z</time>
    </trkpt>
    <trkpt lat="45.290478" lon="5.776694">
      <ele>1473</ele>
      <time>2025-05-02T10:52:24.000Z</time>
    </trkpt>
    <trkpt lat="45.290259" lon="5.776617">
      <ele>1479</ele>
      <time>2025-05-02T10:52:46.000Z</time>
    </trkpt>
    <trkpt lat="45.290042" lon="5.776496">
      <ele>1482</ele>
      <time>2025-05-02T10:53:05.000Z</time>
    </trkpt>
    <trkpt lat="45.289817" lon="5.776448">
      <ele>1486</ele>
      <time>2025-05-02T10:53:25.000Z</time>
    </trkpt>
    <trkpt lat="45.28958" lon="5.776463">
      <ele>1490</ele>
      <time>2025-05-02T10:53:45.000Z</time>
    </trkpt>
    <trkpt lat="45.289353" lon="5.776489">
      <ele>1495</ele>
      <time>2025-05-02T10:54:06.000Z</time>
    </trkpt>
    <trkpt lat="45.289122" lon="5.776492">
      <ele>1498</ele>
      <time>2025-05-02T10:54:26.000Z</time>
    </trkpt>
    <trkpt lat="45.288894" lon="5.776514">
      <ele>1502</ele>
      <time>2025-05-02T10:54:46.000Z</time>
    </trkpt>
    <trkpt lat="45.288664" lon="5.776568">
      <ele>1506</ele>
      <time>2025-05-02T10:55:06.000Z</time>
    </trkpt>
    <trkpt lat="45.288459" lon="5.77672">
      <ele>1511</ele>
      <time>2025-05-02T10:55:27.000Z</time>
    </trkpt>
    <trkpt lat="45.288303" lon="5.776957">
      <ele>1514</ele>
      <time>2025-05-02T10:55:47.000Z</time>
    </trkpt>
    <trkpt lat="45.288125" lon="5.777173">
      <ele>1518</ele>
      <time>2025-05-02T10:56:07.000Z</time>
    </trkpt>
    <trkpt lat="45.287913" lon="5.777312">
      <ele>1527</ele>
      <time>2025-05-02T10:56:27.000Z</time>
    </trkpt>
    <trkpt lat="45.287676" lon="5.777335">
      <ele>1532</ele>
      <time>2025-05-02T10:56:46.000Z</time>
    </trkpt>
    <trkpt lat="45.287438" lon="5.777382">
      <ele>1534</ele>
      <time>2025-05-02T10:57:09.000Z</time>
    </trkpt>
    <trkpt lat="45.287218" lon="5.777464">
      <ele>1534</ele>
      <time>2025-05-02T10:57:28.000Z</time>
    </trkpt>
    <trkpt lat="45.287007" lon="5.777594">
      <ele>1538</ele>
      <time>2025-05-02T10:57:50.000Z</time>
    </trkpt>
    <trkpt lat="45.286785" lon="5.7777">
      <ele>1543</ele>
      <time>2025-05-02T10:58:12.000Z</time>
    </trkpt>
    <trkpt lat="45.28701" lon="5.777754">
      <ele>1548</ele>
      <time>2025-05-02T10:58:39.000Z</time>
    </trkpt>
    <trkpt lat="45.287233" lon="5.777847">
      <ele>1557</ele>
      <time>2025-05-02T10:59:00.000Z</time>
    </trkpt>
    <trkpt lat="45.28745" lon="5.777952">
      <ele>1563</ele>
      <time>2025-05-02T10:59:18.000Z</time>
    </trkpt>
    <trkpt lat="45.28766" lon="5.778077">
      <ele>1569</ele>
      <time>2025-05-02T10:59:39.000Z</time>
    </trkpt>
    <trkpt lat="45.287478" lon="5.778273">
      <ele>1578</ele>
      <time>2025-05-02T11:00:28.000Z</time>
    </trkpt>
    <trkpt lat="45.287251" lon="5.778338">
      <ele>1579</ele>
      <time>2025-05-02T11:00:48.000Z</time>
    </trkpt>
    <trkpt lat="45.287019" lon="5.778353">
      <ele>1583</ele>
      <time>2025-05-02T11:01:08.000Z</time>
    </trkpt>
    <trkpt lat="45.286792" lon="5.778444">
      <ele>1586</ele>
      <time>2025-05-02T11:01:28.000Z</time>
    </trkpt>
    <trkpt lat="45.286623" lon="5.778657">
      <ele>1592</ele>
      <time>2025-05-02T11:01:50.000Z</time>
    </trkpt>
    <trkpt lat="45.286473" lon="5.778901">
      <ele>1596</ele>
      <time>2025-05-02T11:02:12.000Z</time>
    </trkpt>
    <trkpt lat="45.286325" lon="5.779144">
      <ele>1604</ele>
      <time>2025-05-02T11:02:39.000Z</time>
    </trkpt>
    <trkpt lat="45.28616" lon="5.779371">
      <ele>1612</ele>
      <time>2025-05-02T11:03:08.000Z</time>
    </trkpt>
    <trkpt lat="45.285968" lon="5.779557">
      <ele>1622</ele>
      <time>2025-05-02T11:03:50.000Z</time>
    </trkpt>
    <trkpt lat="45.285761" lon="5.779424">
      <ele>1627</ele>
      <time>2025-05-02T11:05:08.000Z</time>
    </trkpt>
    <trkpt lat="45.285615" lon="5.779164">
      <ele>1624</ele>
      <time>2025-05-02T11:05:31.000Z</time>
    </trkpt>
    <trkpt lat="45.285405" lon="5.779014">
      <ele>1625</ele>
      <time>2025-05-02T11:05:52.000Z</time>
    </trkpt>
    <trkpt lat="45.285176" lon="5.778915">
      <ele>1629</ele>
      <time>2025-05-02T11:06:21.000Z</time>
    </trkpt>
    <trkpt lat="45.284962" lon="5.778814">
      <ele>1627</ele>
      <time>2025-05-02T11:06:45.000Z</time>
    </trkpt>
    <trkpt lat="45.284747" lon="5.778709">
      <ele>1631</ele>
      <time>2025-05-02T11:07:12.000Z</time>
    </trkpt>
    <trkpt lat="45.284536" lon="5.77858">
      <ele>1631</ele>
      <time>2025-05-02T11:07:36.000Z</time>
    </trkpt>
    <trkpt lat="45.28433" lon="5.778438">
      <ele>1633</ele>
      <time>2025-05-02T11:07:58.000Z</time>
    </trkpt>
    <trkpt lat="45.284137" lon="5.77826">
      <ele>1632</ele>
      <time>2025-05-02T11:08:20.000Z</time>
    </trkpt>
    <trkpt lat="45.283926" lon="5.778119">
      <ele>1635</ele>
      <time>2025-05-02T11:08:41.000Z</time>
    </trkpt>
    <trkpt lat="45.283737" lon="5.777943">
      <ele>1634</ele>
      <time>2025-05-02T11:09:01.000Z</time>
    </trkpt>
    <trkpt lat="45.283528" lon="5.777786">
      <ele>1635</ele>
      <time>2025-05-02T11:09:27.000Z</time>
    </trkpt>
    <trkpt lat="45.283319" lon="5.777649">
      <ele>1641</ele>
      <time>2025-05-02T11:09:57.000Z</time>
    </trkpt>
    <trkpt lat="45.2831" lon="5.777526">
      <ele>1642</ele>
      <time>2025-05-02T11:10:25.000Z</time>
    </trkpt>
    <trkpt lat="45.282883" lon="5.777391">
      <ele>1642</ele>
      <time>2025-05-02T11:10:46.000Z</time>
    </trkpt>
    <trkpt lat="45.282668" lon="5.777287">
      <ele>1644</ele>
      <time>2025-05-02T11:11:08.000Z</time>
    </trkpt>
    <trkpt lat="45.282442" lon="5.777261">
      <ele>1647</ele>
      <time>2025-05-02T11:11:35.000Z</time>
    </trkpt>
    <trkpt lat="45.282213" lon="5.77731">
      <ele>1655</ele>
      <time>2025-05-02T11:12:31.000Z</time>
    </trkpt>
    <trkpt lat="45.282005" lon="5.777439">
      <ele>1664</ele>
      <time>2025-05-02T11:13:06.000Z</time>
    </trkpt>
    <trkpt lat="45.281782" lon="5.777509">
      <ele>1671</ele>
      <time>2025-05-02T11:13:40.000Z</time>
    </trkpt>
    <trkpt lat="45.28158" lon="5.77765">
      <ele>1679</ele>
      <time>2025-05-02T11:14:18.000Z</time>
    </trkpt>
    <trkpt lat="45.28136" lon="5.777747">
      <ele>1686</ele>
      <time>2025-05-02T11:15:30.000Z</time>
    </trkpt>
    <trkpt lat="45.281586" lon="5.77768">
      <ele>1684</ele>
      <time>2025-05-02T11:17:46.000Z</time>
    </trkpt>
    <trkpt lat="45.281808" lon="5.777749">
      <ele>1684</ele>
      <time>2025-05-02T11:19:14.000Z</time>
    </trkpt>
    <trkpt lat="45.282027" lon="5.777872">
      <ele>1694</ele>
      <time>2025-05-02T11:21:19.000Z</time>
    </trkpt>
    <trkpt lat="45.282261" lon="5.777898">
      <ele>1695</ele>
      <time>2025-05-02T11:22:04.000Z</time>
    </trkpt>
    <trkpt lat="45.282042" lon="5.777986">
      <ele>1710</ele>
      <time>2025-05-02T11:24:27.000Z</time>
    </trkpt>
    <trkpt lat="45.281815" lon="5.778003">
      <ele>1717</ele>
      <time>2025-05-02T11:26:19.000Z</time>
    </trkpt>
    <trkpt lat="45.281646" lon="5.778215">
      <ele>1734</ele>
      <time>2025-05-02T11:30:31.000Z</time>
    </trkpt>
    <trkpt lat="45.281437" lon="5.778343">
      <ele>1739</ele>
      <time>2025-05-02T11:31:10.000Z</time>
    </trkpt>
    <trkpt lat="45.28161" lon="5.778563">
      <ele>1749</ele>
      <time>2025-05-02T11:32:24.000Z</time>
    </trkpt>
    <trkpt lat="45.281783" lon="5.778773">
      <ele>1766</ele>
      <time>2025-05-02T11:35:29.000Z</time>
    </trkpt>
    <trkpt lat="45.281573" lon="5.778909">
      <ele>1774</ele>
      <time>2025-05-02T11:37:02.000Z</time>
    </trkpt>
    <trkpt lat="45.2814" lon="5.779029">
      <ele>1787</ele>
      <time>2025-05-02T12:53:51.000Z</time>
    </trkpt>
    <trkpt lat="45.281195" lon="5.779175">
      <ele>1797</ele>
      <time>2025-05-02T12:54:54.000Z</time>
    </trkpt>
    <trkpt lat="45.281075" lon="5.779448">
      <ele>1807</ele>
      <time>2025-05-02T12:55:55.000Z</time>
    </trkpt>
    <trkpt lat="45.280959" lon="5.77973">
      <ele>1813</ele>
      <time>2025-05-02T12:56:49.000Z</time>
    </trkpt>
    <trkpt lat="45.281045" lon="5.78003">
      <ele>1817</ele>
      <time>2025-05-02T12:57:26.000Z</time>
    </trkpt>
    <trkpt lat="45.281237" lon="5.780205">
      <ele>1822</ele>
      <time>2025-05-02T12:58:55.000Z</time>
    </trkpt>
    <trkpt lat="45.281313" lon="5.780505">
      <ele>1827</ele>
      <time>2025-05-02T12:59:34.000Z</time>
    </trkpt>
    <trkpt lat="45.281416" lon="5.780798">
      <ele>1835</ele>
      <time>2025-05-02T13:00:07.000Z</time>
    </trkpt>
    <trkpt lat="45.281533" lon="5.781086">
      <ele>1840</ele>
      <time>2025-05-02T13:00:45.000Z</time>
    </trkpt>
    <trkpt lat="45.281626" lon="5.781385">
      <ele>1849</ele>
      <time>2025-05-02T13:01:30.000Z</time>
    </trkpt>
    <trkpt lat="45.281711" lon="5.781682">
      <ele>1856</ele>
      <time>2025-05-02T13:02:06.000Z</time>
    </trkpt>
    <trkpt lat="45.281799" lon="5.781977">
      <ele>1860</ele>
      <time>2025-05-02T13:03:41.000Z</time>
    </trkpt>
    <trkpt lat="45.281908" lon="5.782256">
      <ele>1873</ele>
      <time>2025-05-02T13:04:08.000Z</time>
    </trkpt>
    <trkpt lat="45.282068" lon="5.78249">
      <ele>1878</ele>
      <time>2025-05-02T13:04:39.000Z</time>
    </trkpt>
    <trkpt lat="45.28205" lon="5.78281">
      <ele>1883</ele>
      <time>2025-05-02T13:05:34.000Z</time>
    </trkpt>
    <trkpt lat="45.282149" lon="5.783106">
      <ele>1886</ele>
      <time>2025-05-02T13:06:10.000Z</time>
    </trkpt>
    <trkpt lat="45.282315" lon="5.783324">
      <ele>1887</ele>
      <time>2025-05-02T13:06:37.000Z</time>
    </trkpt>
    <trkpt lat="45.282453" lon="5.783585">
      <ele>1893</ele>
      <time>2025-05-02T13:07:05.000Z</time>
    </trkpt>
    <trkpt lat="45.282608" lon="5.783832">
      <ele>1897</ele>
      <time>2025-05-02T13:07:39.000Z</time>
    </trkpt>
    <trkpt lat="45.282829" lon="5.783952">
      <ele>1899</ele>
      <time>2025-05-02T13:08:40.000Z</time>
    </trkpt>
    <trkpt lat="45.283008" lon="5.784148">
      <ele>1899</ele>
      <time>2025-05-02T13:09:01.000Z</time>
    </trkpt>
    <trkpt lat="45.283089" lon="5.784453">
      <ele>1907</ele>
      <time>2025-05-02T13:09:44.000Z</time>
    </trkpt>
    <trkpt lat="45.283198" lon="5.784758">
      <ele>1912</ele>
      <time>2025-05-02T13:10:16.000Z</time>
    </trkpt>
    <trkpt lat="45.283339" lon="5.785016">
      <ele>1916</ele>
      <time>2025-05-02T13:10:43.000Z</time>
    </trkpt>
    <trkpt lat="45.283492" lon="5.78526">
      <ele>1922</ele>
      <time>2025-05-02T13:11:27.000Z</time>
    </trkpt>
    <trkpt lat="45.283654" lon="5.78549">
      <ele>1928</ele>
      <time>2025-05-02T13:12:02.000Z</time>
    </trkpt>
    <trkpt lat="45.283813" lon="5.785728">
      <ele>1933</ele>
      <time>2025-05-02T13:12:33.000Z</time>
    </trkpt>
    <trkpt lat="45.283974" lon="5.785971">
      <ele>1941</ele>
      <time>2025-05-02T13:13:11.000Z</time>
    </trkpt>
    <trkpt lat="45.284162" lon="5.786149">
      <ele>1945</ele>
      <time>2025-05-02T13:13:37.000Z</time>
    </trkpt>
    <trkpt lat="45.284358" lon="5.786327">
      <ele>1953</ele>
      <time>2025-05-02T13:14:22.000Z</time>
    </trkpt>
    <trkpt lat="45.284563" lon="5.786467">
      <ele>1961</ele>
      <time>2025-05-02T13:14:59.000Z</time>
    </trkpt>
    <trkpt lat="45.284791" lon="5.786537">
      <ele>1967</ele>
      <time>2025-05-02T13:15:34.000Z</time>
    </trkpt>
    <trkpt lat="45.285018" lon="5.7866">
      <ele>1972</ele>
      <time>2025-05-02T13:16:04.000Z</time>
    </trkpt>
    <trkpt lat="45.285245" lon="5.786663">
      <ele>1980</ele>
      <time>2025-05-02T13:16:33.000Z</time>
    </trkpt>
    <trkpt lat="45.285471" lon="5.786705">
      <ele>1987</ele>
      <time>2025-05-02T13:17:03.000Z</time>
    </trkpt>
    <trkpt lat="45.285705" lon="5.786739">
      <ele>1992</ele>
      <time>2025-05-02T13:17:31.000Z</time>
    </trkpt>
    <trkpt lat="45.285924" lon="5.786816">
      <ele>2000</ele>
      <time>2025-05-02T13:17:59.000Z</time>
    </trkpt>
    <trkpt lat="45.286148" lon="5.786873">
      <ele>2006</ele>
      <time>2025-05-02T13:18:25.000Z</time>
    </trkpt>
    <trkpt lat="45.286296" lon="5.787112">
      <ele>2020</ele>
      <time>2025-05-02T13:19:31.000Z</time>
    </trkpt>
    <trkpt lat="45.286168" lon="5.78738">
      <ele>2034</ele>
      <time>2025-05-02T13:20:33.000Z</time>
    </trkpt>
    <trkpt lat="45.286161" lon="5.787701">
      <ele>2047</ele>
      <time>2025-05-02T13:21:35.000Z</time>
    </trkpt>
    <trkpt lat="45.28635" lon="5.787881">
      <ele>2058</ele>
      <time>2025-05-02T13:22:25.000Z</time>
    </trkpt>
    <trkpt lat="45.286578" lon="5.78788">
      <ele>2062</ele>
      <time>2025-05-02T13:22:57.000Z</time>
    </trkpt>
    <trkpt lat="45.286806" lon="5.787819">
      <ele>2064</ele>
      <time>2025-05-02T13:23:48.000Z</time>
    </trkpt>
    <trkpt lat="45.287027" lon="5.787918">
      <ele>2069</ele>
      <time>2025-05-02T13:24:11.000Z</time>
    </trkpt>
    <trkpt lat="45.287244" lon="5.787822">
      <ele>2074</ele>
      <time>2025-05-02T13:26:51.000Z</time>
    </trkpt>
    <trkpt lat="45.287447" lon="5.787963">
      <ele>2079</ele>
      <time>2025-05-02T13:27:16.000Z</time>
    </trkpt>
    <trkpt lat="45.287638" lon="5.78814">
      <ele>2083</ele>
      <time>2025-05-02T13:27:38.000Z</time>
    </trkpt>
    <trkpt lat="45.287445" lon="5.787976">
      <ele>2079</ele>
      <time>2025-05-02T13:35:58.000Z</time>
    </trkpt>
    <trkpt lat="45.287237" lon="5.787835">
      <ele>2076</ele>
      <time>2025-05-02T13:36:50.000Z</time>
    </trkpt>
    <trkpt lat="45.287004" lon="5.787858">
      <ele>2068</ele>
      <time>2025-05-02T13:39:13.000Z</time>
    </trkpt>
    <trkpt lat="45.286772" lon="5.787785">
      <ele>2067</ele>
      <time>2025-05-02T13:39:28.000Z</time>
    </trkpt>
    <trkpt lat="45.286542" lon="5.787858">
      <ele>2065</ele>
      <time>2025-05-02T13:40:15.000Z</time>
    </trkpt>
    <trkpt lat="45.286314" lon="5.787818">
      <ele>2060</ele>
      <time>2025-05-02T13:40:39.000Z</time>
    </trkpt>
    <trkpt lat="45.286133" lon="5.78762">
      <ele>2044</ele>
      <time>2025-05-02T13:41:07.000Z</time>
    </trkpt>
    <trkpt lat="45.286232" lon="5.78732">
      <ele>2033</ele>
      <time>2025-05-02T13:41:41.000Z</time>
    </trkpt>
    <trkpt lat="45.286308" lon="5.78701">
      <ele>2013</ele>
      <time>2025-05-02T13:43:01.000Z</time>
    </trkpt>
    <trkpt lat="45.286491" lon="5.786818">
      <ele>2011</ele>
      <time>2025-05-02T13:44:08.000Z</time>
    </trkpt>
    <trkpt lat="45.28661" lon="5.78653">
      <ele>1993</ele>
      <time>2025-05-02T13:45:16.000Z</time>
    </trkpt>
    <trkpt lat="45.28639" lon="5.786447">
      <ele>1981</ele>
      <time>2025-05-02T13:45:50.000Z</time>
    </trkpt>
    <trkpt lat="45.286572" lon="5.786259">
      <ele>1975</ele>
      <time>2025-05-02T13:46:40.000Z</time>
    </trkpt>
    <trkpt lat="45.28638" lon="5.786076">
      <ele>1967</ele>
      <time>2025-05-02T13:47:40.000Z</time>
    </trkpt>
    <trkpt lat="45.28615" lon="5.786022">
      <ele>1965</ele>
      <time>2025-05-02T13:48:06.000Z</time>
    </trkpt>
    <trkpt lat="45.286355" lon="5.785888">
      <ele>1948</ele>
      <time>2025-05-02T13:48:52.000Z</time>
    </trkpt>
    <trkpt lat="45.286174" lon="5.785671">
      <ele>1937</ele>
      <time>2025-05-02T13:49:33.000Z</time>
    </trkpt>
    <trkpt lat="45.286366" lon="5.785484">
      <ele>1925</ele>
      <time>2025-05-02T13:50:25.000Z</time>
    </trkpt>
    <trkpt lat="45.286192" lon="5.785277">
      <ele>1922</ele>
      <time>2025-05-02T13:51:20.000Z</time>
    </trkpt>
    <trkpt lat="45.285987" lon="5.785112">
      <ele>1916</ele>
      <time>2025-05-02T13:51:37.000Z</time>
    </trkpt>
    <trkpt lat="45.285772" lon="5.785017">
      <ele>1910</ele>
      <time>2025-05-02T13:51:46.000Z</time>
    </trkpt>
    <trkpt lat="45.285556" lon="5.784917">
      <ele>1907</ele>
      <time>2025-05-02T13:52:19.000Z</time>
    </trkpt>
    <trkpt lat="45.285337" lon="5.784844">
      <ele>1904</ele>
      <time>2025-05-02T13:53:01.000Z</time>
    </trkpt>
    <trkpt lat="45.285164" lon="5.784637">
      <ele>1894</ele>
      <time>2025-05-02T13:53:52.000Z</time>
    </trkpt>
    <trkpt lat="45.284949" lon="5.784509">
      <ele>1890</ele>
      <time>2025-05-02T13:54:09.000Z</time>
    </trkpt>
    <trkpt lat="45.285175" lon="5.784528">
      <ele>1888</ele>
      <time>2025-05-02T13:54:47.000Z</time>
    </trkpt>
    <trkpt lat="45.285407" lon="5.784492">
      <ele>1889</ele>
      <time>2025-05-02T13:55:06.000Z</time>
    </trkpt>
    <trkpt lat="45.285644" lon="5.784473">
      <ele>1889</ele>
      <time>2025-05-02T13:55:23.000Z</time>
    </trkpt>
    <trkpt lat="45.285871" lon="5.784498">
      <ele>1890</ele>
      <time>2025-05-02T13:55:44.000Z</time>
    </trkpt>
    <trkpt lat="45.286097" lon="5.7845">
      <ele>1883</ele>
      <time>2025-05-02T13:56:20.000Z</time>
    </trkpt>
    <trkpt lat="45.286327" lon="5.784493">
      <ele>1879</ele>
      <time>2025-05-02T13:57:06.000Z</time>
    </trkpt>
    <trkpt lat="45.286543" lon="5.78438">
      <ele>1873</ele>
      <time>2025-05-02T13:57:24.000Z</time>
    </trkpt>
    <trkpt lat="45.286765" lon="5.78431">
      <ele>1864</ele>
      <time>2025-05-02T14:00:33.000Z</time>
    </trkpt>
    <trkpt lat="45.286976" lon="5.784193">
      <ele>1856</ele>
      <time>2025-05-02T14:01:10.000Z</time>
    </trkpt>
    <trkpt lat="45.28718" lon="5.784041">
      <ele>1847</ele>
      <time>2025-05-02T14:01:38.000Z</time>
    </trkpt>
    <trkpt lat="45.287391" lon="5.783919">
      <ele>1842</ele>
      <time>2025-05-02T14:02:20.000Z</time>
    </trkpt>
    <trkpt lat="45.28761" lon="5.783826">
      <ele>1837</ele>
      <time>2025-05-02T14:02:42.000Z</time>
    </trkpt>
    <trkpt lat="45.287443" lon="5.783601">
      <ele>1823</ele>
      <time>2025-05-02T14:03:25.000Z</time>
    </trkpt>
    <trkpt lat="45.287259" lon="5.783407">
      <ele>1816</ele>
      <time>2025-05-02T14:04:04.000Z</time>
    </trkpt>
    <trkpt lat="45.287064" lon="5.783242">
      <ele>1806</ele>
      <time>2025-05-02T14:05:01.000Z</time>
    </trkpt>
    <trkpt lat="45.286932" lon="5.782984">
      <ele>1793</ele>
      <time>2025-05-02T14:06:41.000Z</time>
    </trkpt>
    <trkpt lat="45.286784" lon="5.782736">
      <ele>1780</ele>
      <time>2025-05-02T14:07:18.000Z</time>
    </trkpt>
    <trkpt lat="45.286843" lon="5.782427">
      <ele>1760</ele>
      <time>2025-05-02T14:09:39.000Z</time>
    </trkpt>
    <trkpt lat="45.286641" lon="5.782265">
      <ele>1750</ele>
      <time>2025-05-02T14:10:38.000Z</time>
    </trkpt>
    <trkpt lat="45.286474" lon="5.782048">
      <ele>1740</ele>
      <time>2025-05-02T14:11:21.000Z</time>
    </trkpt>
    <trkpt lat="45.286706" lon="5.781992">
      <ele>1734</ele>
      <time>2025-05-02T14:11:51.000Z</time>
    </trkpt>
    <trkpt lat="45.286889" lon="5.781794">
      <ele>1729</ele>
      <time>2025-05-02T14:12:16.000Z</time>
    </trkpt>
    <trkpt lat="45.28702" lon="5.781528">
      <ele>1720</ele>
      <time>2025-05-02T14:12:37.000Z</time>
    </trkpt>
    <trkpt lat="45.286831" lon="5.781341">
      <ele>1708</ele>
      <time>2025-05-02T14:13:26.000Z</time>
    </trkpt>
    <trkpt lat="45.2866" lon="5.781309">
      <ele>1703</ele>
      <time>2025-05-02T14:13:45.000Z</time>
    </trkpt>
    <trkpt lat="45.286366" lon="5.781274">
      <ele>1700</ele>
      <time>2025-05-02T14:14:03.000Z</time>
    </trkpt>
    <trkpt lat="45.286151" lon="5.781148">
      <ele>1697</ele>
      <time>2025-05-02T14:14:21.000Z</time>
    </trkpt>
    <trkpt lat="45.286345" lon="5.78097">
      <ele>1686</ele>
      <time>2025-05-02T14:15:11.000Z</time>
    </trkpt>
    <trkpt lat="45.286558" lon="5.780856">
      <ele>1679</ele>
      <time>2025-05-02T14:15:31.000Z</time>
    </trkpt>
    <trkpt lat="45.286755" lon="5.780674">
      <ele>1674</ele>
      <time>2025-05-02T14:15:53.000Z</time>
    </trkpt>
    <trkpt lat="45.286921" lon="5.780448">
      <ele>1670</ele>
      <time>2025-05-02T14:16:12.000Z</time>
    </trkpt>
    <trkpt lat="45.287087" lon="5.780228">
      <ele>1666</ele>
      <time>2025-05-02T14:16:37.000Z</time>
    </trkpt>
    <trkpt lat="45.286856" lon="5.780223">
      <ele>1663</ele>
      <time>2025-05-02T14:17:12.000Z</time>
    </trkpt>
    <trkpt lat="45.286637" lon="5.780313">
      <ele>1659</ele>
      <time>2025-05-02T14:17:39.000Z</time>
    </trkpt>
    <trkpt lat="45.286404" lon="5.780239">
      <ele>1651</ele>
      <time>2025-05-02T14:18:04.000Z</time>
    </trkpt>
    <trkpt lat="45.286184" lon="5.780139">
      <ele>1645</ele>
      <time>2025-05-02T14:18:31.000Z</time>
    </trkpt>
    <trkpt lat="45.285976" lon="5.780007">
      <ele>1643</ele>
      <time>2025-05-02T14:18:58.000Z</time>
    </trkpt>
    <trkpt lat="45.285868" lon="5.779714">
      <ele>1634</ele>
      <time>2025-05-02T14:19:38.000Z</time>
    </trkpt>
    <trkpt lat="45.286053" lon="5.779523">
      <ele>1617</ele>
      <time>2025-05-02T14:21:45.000Z</time>
    </trkpt>
    <trkpt lat="45.286247" lon="5.77934">
      <ele>1611</ele>
      <time>2025-05-02T14:22:21.000Z</time>
    </trkpt>
    <trkpt lat="45.286383" lon="5.779081">
      <ele>1603</ele>
      <time>2025-05-02T14:23:01.000Z</time>
    </trkpt>
    <trkpt lat="45.286563" lon="5.778876">
      <ele>1596</ele>
      <time>2025-05-02T14:23:29.000Z</time>
    </trkpt>
    <trkpt lat="45.2867" lon="5.778616">
      <ele>1591</ele>
      <time>2025-05-02T14:24:11.000Z</time>
    </trkpt>
    <trkpt lat="45.286902" lon="5.77845">
      <ele>1586</ele>
      <time>2025-05-02T14:24:48.000Z</time>
    </trkpt>
    <trkpt lat="45.287122" lon="5.77835">
      <ele>1581</ele>
      <time>2025-05-02T14:25:11.000Z</time>
    </trkpt>
    <trkpt lat="45.287348" lon="5.778356">
      <ele>1579</ele>
      <time>2025-05-02T14:25:39.000Z</time>
    </trkpt>
    <trkpt lat="45.2876" lon="5.778272">
      <ele>1578</ele>
      <time>2025-05-02T14:26:09.000Z</time>
    </trkpt>
    <trkpt lat="45.287814" lon="5.778163">
      <ele>1573</ele>
      <time>2025-05-02T14:26:45.000Z</time>
    </trkpt>
    <trkpt lat="45.28762" lon="5.777991">
      <ele>1566</ele>
      <time>2025-05-02T14:27:27.000Z</time>
    </trkpt>
    <trkpt lat="45.287403" lon="5.777888">
      <ele>1559</ele>
      <time>2025-05-02T14:27:56.000Z</time>
    </trkpt>
    <trkpt lat="45.287172" lon="5.777803">
      <ele>1553</ele>
      <time>2025-05-02T14:28:16.000Z</time>
    </trkpt>
    <trkpt lat="45.286937" lon="5.777744">
      <ele>1548</ele>
      <time>2025-05-02T14:28:46.000Z</time>
    </trkpt>
    <trkpt lat="45.287108" lon="5.777532">
      <ele>1544</ele>
      <time>2025-05-02T14:29:35.000Z</time>
    </trkpt>
    <trkpt lat="45.287329" lon="5.777447">
      <ele>1538</ele>
      <time>2025-05-02T14:29:59.000Z</time>
    </trkpt>
    <trkpt lat="45.287551" lon="5.77737">
      <ele>1538</ele>
      <time>2025-05-02T14:30:16.000Z</time>
    </trkpt>
    <trkpt lat="45.287776" lon="5.77733">
      <ele>1534</ele>
      <time>2025-05-02T14:30:37.000Z</time>
    </trkpt>
    <trkpt lat="45.288011" lon="5.777293">
      <ele>1527</ele>
      <time>2025-05-02T14:31:07.000Z</time>
    </trkpt>
    <trkpt lat="45.288211" lon="5.777132">
      <ele>1523</ele>
      <time>2025-05-02T14:31:25.000Z</time>
    </trkpt>
    <trkpt lat="45.288348" lon="5.776874">
      <ele>1518</ele>
      <time>2025-05-02T14:31:40.000Z</time>
    </trkpt>
    <trkpt lat="45.288558" lon="5.776708">
      <ele>1511</ele>
      <time>2025-05-02T14:31:59.000Z</time>
    </trkpt>
    <trkpt lat="45.288767" lon="5.776588">
      <ele>1504</ele>
      <time>2025-05-02T14:32:16.000Z</time>
    </trkpt>
    <trkpt lat="45.288999" lon="5.776518">
      <ele>1503</ele>
      <time>2025-05-02T14:32:33.000Z</time>
    </trkpt>
    <trkpt lat="45.289238" lon="5.776494">
      <ele>1501</ele>
      <time>2025-05-02T14:32:53.000Z</time>
    </trkpt>
    <trkpt lat="45.289465" lon="5.776485">
      <ele>1498</ele>
      <time>2025-05-02T14:33:12.000Z</time>
    </trkpt>
    <trkpt lat="45.28969" lon="5.776472">
      <ele>1494</ele>
      <time>2025-05-02T14:33:31.000Z</time>
    </trkpt>
    <trkpt lat="45.289922" lon="5.776452">
      <ele>1487</ele>
      <time>2025-05-02T14:33:55.000Z</time>
    </trkpt>
    <trkpt lat="45.29014" lon="5.776558">
      <ele>1483</ele>
      <time>2025-05-02T14:34:15.000Z</time>
    </trkpt>
    <trkpt lat="45.290345" lon="5.776695">
      <ele>1480</ele>
      <time>2025-05-02T14:34:30.000Z</time>
    </trkpt>
    <trkpt lat="45.290572" lon="5.776754">
      <ele>1473</ele>
      <time>2025-05-02T14:34:46.000Z</time>
    </trkpt>
    <trkpt lat="45.290806" lon="5.776708">
      <ele>1468</ele>
      <time>2025-05-02T14:35:08.000Z</time>
    </trkpt>
    <trkpt lat="45.291035" lon="5.776708">
      <ele>1464</ele>
      <time>2025-05-02T14:35:25.000Z</time>
    </trkpt>
    <trkpt lat="45.291267" lon="5.776704">
      <ele>1458</ele>
      <time>2025-05-02T14:35:45.000Z</time>
    </trkpt>
    <trkpt lat="45.291116" lon="5.776462">
      <ele>1456</ele>
      <time>2025-05-02T14:36:03.000Z</time>
    </trkpt>
    <trkpt lat="45.290957" lon="5.776215">
      <ele>1458</ele>
      <time>2025-05-02T14:36:18.000Z</time>
    </trkpt>
    <trkpt lat="45.290796" lon="5.775972">
      <ele>1452</ele>
      <time>2025-05-02T14:36:36.000Z</time>
    </trkpt>
    <trkpt lat="45.290675" lon="5.77568">
      <ele>1442</ele>
      <time>2025-05-02T14:36:56.000Z</time>
    </trkpt>
    <trkpt lat="45.290572" lon="5.775395">
      <ele>1442</ele>
      <time>2025-05-02T14:37:12.000Z</time>
    </trkpt>
    <trkpt lat="45.290466" lon="5.775101">
      <ele>1438</ele>
      <time>2025-05-02T14:37:32.000Z</time>
    </trkpt>
    <trkpt lat="45.290382" lon="5.774792">
      <ele>1430</ele>
      <time>2025-05-02T14:38:03.000Z</time>
    </trkpt>
    <trkpt lat="45.290278" lon="5.774494">
      <ele>1424</ele>
      <time>2025-05-02T14:38:15.000Z</time>
    </trkpt>
    <trkpt lat="45.290133" lon="5.774219">
      <ele>1419</ele>
      <time>2025-05-02T14:38:35.000Z</time>
    </trkpt>
    <trkpt lat="45.289963" lon="5.773994">
      <ele>1414</ele>
      <time>2025-05-02T14:38:50.000Z</time>
    </trkpt>
    <trkpt lat="45.28978" lon="5.773798">
      <ele>1407</ele>
      <time>2025-05-02T14:39:06.000Z</time>
    </trkpt>
    <trkpt lat="45.289572" lon="5.773663">
      <ele>1404</ele>
      <time>2025-05-02T14:39:22.000Z</time>
    </trkpt>
    <trkpt lat="45.28937" lon="5.773496">
      <ele>1400</ele>
      <time>2025-05-02T14:39:34.000Z</time>
    </trkpt>
    <trkpt lat="45.28917" lon="5.773323">
      <ele>1391</ele>
      <time>2025-05-02T14:39:45.000Z</time>
    </trkpt>
    <trkpt lat="45.288966" lon="5.773177">
      <ele>1386</ele>
      <time>2025-05-02T14:40:03.000Z</time>
    </trkpt>
    <trkpt lat="45.288774" lon="5.772993">
      <ele>1384</ele>
      <time>2025-05-02T14:40:17.000Z</time>
    </trkpt>
    <trkpt lat="45.28859" lon="5.772808">
      <ele>1379</ele>
      <time>2025-05-02T14:40:32.000Z</time>
    </trkpt>
    <trkpt lat="45.288381" lon="5.772684">
      <ele>1377</ele>
      <time>2025-05-02T14:40:47.000Z</time>
    </trkpt>
    <trkpt lat="45.288206" lon="5.772477">
      <ele>1377</ele>
      <time>2025-05-02T14:41:05.000Z</time>
    </trkpt>
    <trkpt lat="45.288148" lon="5.772168">
      <ele>1372</ele>
      <time>2025-05-02T14:41:22.000Z</time>
    </trkpt>
    <trkpt lat="45.288112" lon="5.771837">
      <ele>1366</ele>
      <time>2025-05-02T14:41:38.000Z</time>
    </trkpt>
    <trkpt lat="45.288081" lon="5.771521">
      <ele>1364</ele>
      <time>2025-05-02T14:41:51.000Z</time>
    </trkpt>
    <trkpt lat="45.288086" lon="5.77118">
      <ele>1357</ele>
      <time>2025-05-02T14:42:16.000Z</time>
    </trkpt>
    <trkpt lat="45.288082" lon="5.770845">
      <ele>1349</ele>
      <time>2025-05-02T14:42:34.000Z</time>
    </trkpt>
    <trkpt lat="45.28809" lon="5.77051">
      <ele>1345</ele>
      <time>2025-05-02T14:43:07.000Z</time>
    </trkpt>
    <trkpt lat="45.288233" lon="5.770242">
      <ele>1343</ele>
      <time>2025-05-02T14:43:32.000Z</time>
    </trkpt>
    <trkpt lat="45.288355" lon="5.769971">
      <ele>1339</ele>
      <time>2025-05-02T14:43:57.000Z</time>
    </trkpt>
    <trkpt lat="45.288491" lon="5.769716">
      <ele>1336</ele>
      <time>2025-05-02T14:44:14.000Z</time>
    </trkpt>
    <trkpt lat="45.288624" lon="5.769442">
      <ele>1331</ele>
      <time>2025-05-02T14:44:31.000Z</time>
    </trkpt>
    <trkpt lat="45.288648" lon="5.769122">
      <ele>1329</ele>
      <time>2025-05-02T14:44:46.000Z</time>
    </trkpt>
    <trkpt lat="45.288689" lon="5.768797">
      <ele>1325</ele>
      <time>2025-05-02T14:45:04.000Z</time>
    </trkpt>
    <trkpt lat="45.288626" lon="5.768479">
      <ele>1322</ele>
      <time>2025-05-02T14:45:21.000Z</time>
    </trkpt>
    <trkpt lat="45.288761" lon="5.76822">
      <ele>1325</ele>
      <time>2025-05-02T14:45:40.000Z</time>
    </trkpt>
    <trkpt lat="45.288947" lon="5.768023">
      <ele>1324</ele>
      <time>2025-05-02T14:46:01.000Z</time>
    </trkpt>
    <trkpt lat="45.289136" lon="5.767848">
      <ele>1323</ele>
      <time>2025-05-02T14:46:19.000Z</time>
    </trkpt>
    <trkpt lat="45.289328" lon="5.767658">
      <ele>1326</ele>
      <time>2025-05-02T14:46:37.000Z</time>
    </trkpt>
    <trkpt lat="45.289517" lon="5.767467">
      <ele>1323</ele>
      <time>2025-05-02T14:46:57.000Z</time>
    </trkpt>
    <trkpt lat="45.289698" lon="5.767264">
      <ele>1323</ele>
      <time>2025-05-02T14:47:18.000Z</time>
    </trkpt>
    <trkpt lat="45.289899" lon="5.767101">
      <ele>1323</ele>
      <time>2025-05-02T14:47:40.000Z</time>
    </trkpt>
    <trkpt lat="45.29013" lon="5.76712">
      <ele>1321</ele>
      <time>2025-05-02T14:48:01.000Z</time>
    </trkpt>
    <trkpt lat="45.290362" lon="5.767117">
      <ele>1319</ele>
      <time>2025-05-02T14:48:20.000Z</time>
    </trkpt>
    <trkpt lat="45.290588" lon="5.767158">
      <ele>1318</ele>
      <time>2025-05-02T14:48:37.000Z</time>
    </trkpt>
    <trkpt lat="45.290819" lon="5.767197">
      <ele>1318</ele>
      <time>2025-05-02T14:48:55.000Z</time>
    </trkpt>
    <trkpt lat="45.291053" lon="5.767202">
      <ele>1317</ele>
      <time>2025-05-02T14:49:12.000Z</time>
    </trkpt>
    <trkpt lat="45.291283" lon="5.767203">
      <ele>1316</ele>
      <time>2025-05-02T14:49:29.000Z</time>
    </trkpt>
    <trkpt lat="45.291516" lon="5.76719">
      <ele>1314</ele>
      <time>2025-05-02T14:49:48.000Z</time>
    </trkpt>
    <trkpt lat="45.291746" lon="5.767185">
      <ele>1313</ele>
      <time>2025-05-02T14:50:11.000Z</time>
    </trkpt>
    <trkpt lat="45.291973" lon="5.767254">
      <ele>1313</ele>
      <time>2025-05-02T14:50:32.000Z</time>
    </trkpt>
  </trkseg>
</trk></gpx>